[{"OBJECT_NAME":"PRAETORIAN SDA_601","OBJECT_ID":"2025-203W","EPOCH":"2026-03-09T14:36:57.334752","MEAN_MOTION":13.83485126,"ECCENTRICITY":0.0006541,"INCLINATION":81.3004,"RA_OF_ASC_NODE":103.1096,"ARG_OF_PERICENTER":109.4555,"MEAN_ANOMALY":250.7309,"EPHEMERIS_TYPE":0,"CLASSIFICATION_TYPE":"U","NORAD_CAT_ID":65585,"ELEMENT_SET_NO":999,"REV_AT_EPOCH":2491,"BSTAR":-2.5722e-5,"MEAN_MOTION_DOT":-1.6e-7,"MEAN_MOTION_DDOT":0},{"OBJECT_NAME":"CZ-6A DEB","OBJECT_ID":"2022-151AGG","EPOCH":"2026-02-17T21:29:42.731808","MEAN_MOTION":13.99119479,"ECCENTRICITY":0.0122005,"INCLINATION":98.861,"RA_OF_ASC_NODE":23.6532,"ARG_OF_PERICENTER":43.4757,"MEAN_ANOMALY":317.5949,"EPHEMERIS_TYPE":0,"CLASSIFICATION_TYPE":"U","NORAD_CAT_ID":56656,"ELEMENT_SET_NO":999,"REV_AT_EPOCH":14373,"BSTAR":0.0017334,"MEAN_MOTION_DOT":2.634e-5,"MEAN_MOTION_DDOT":0}]
